{
    "links": {
        "self": "http://www.neowsapp.com/rest/v1/neo/3428704?api_key=iIulBulltgU6a56xZRHN4H3l9WmuAYTsLGpBGhQ2"
    },
    "id": "3428704",
    "neo_reference_id": "3428704",
    "name": "(2008 TL)",
    "designation": "2008 TL",
    "nasa_jpl_url": "http://ssd.jpl.nasa.gov/sbdb.cgi?sstr=3428704",
    "absolute_magnitude_h": 27.5,
    "estimated_diameter": {
        "kilometers": {
            "estimated_diameter_min": 0.008405334,
            "estimated_diameter_max": 0.0187948982
        },
        "meters": {
            "estimated_diameter_min": 8.4053340207,
            "estimated_diameter_max": 18.7948982439
        },
        "miles": {
            "estimated_diameter_min": 0.0052228308,
            "estimated_diameter_max": 0.0116786047
        },
        "feet": {
            "estimated_diameter_min": 27.5765560686,
            "estimated_diameter_max": 61.6630539546
        }
    },
    "is_potentially_hazardous_asteroid": false,
    "close_approach_data": [
        {
            "close_approach_date": "2008-09-28",
            "close_approach_date_full": "2008-Sep-28 08:49",
            "epoch_date_close_approach": 1222591740000,
            "relative_velocity": {
                "kilometers_per_second": "12.1375880366",
                "kilometers_per_hour": "43695.3169319375",
                "miles_per_hour": "27150.5706791808"
            },
            "miss_distance": {
                "astronomical": "0.0083391889",
                "lunar": "3.2439444821",
                "kilometers": "1247524.896967643",
                "miles": "775176.0255857534"
            },
            "orbiting_body": "Moon"
        },
        {
            "close_approach_date": "2008-09-28",
            "close_approach_date_full": "2008-Sep-28 15:14",
            "epoch_date_close_approach": 1222614840000,
            "relative_velocity": {
                "kilometers_per_second": "11.5122366657",
                "kilometers_per_hour": "41444.0519966176",
                "miles_per_hour": "25751.7221975649"
            },
            "miss_distance": {
                "astronomical": "0.0069383805",
                "lunar": "2.6990300145",
                "kilometers": "1037966.944049535",
                "miles": "644962.751712183"
            },
            "orbiting_body": "Earth"
        }
    ],
    "orbital_data": {
        "orbit_id": "9",
        "orbit_determination_date": "2017-04-06 09:02:44",
        "first_observation_date": "2008-10-01",
        "last_observation_date": "2008-10-05",
        "data_arc_in_days": 4,
        "observations_used": 22,
        "orbit_uncertainty": "8",
        "minimum_orbit_intersection": ".00683427",
        "jupiter_tisserand_invariant": "3.978",
        "epoch_osculation": "2454741.5",
        "eccentricity": ".4804869305080521",
        "semi_major_axis": "1.750329421929601",
        "inclination": "8.89339060382212",
        "ascending_node_longitude": "7.77092005783323",
        "orbital_period": "845.8203239610613",
        "perihelion_distance": ".9093190106087137",
        "perihelion_argument": "312.7022448987011",
        "aphelion_distance": "2.591339833250488",
        "perihelion_time": "2454703.133848173215",
        "mean_anomaly": "16.32949016046397",
        "mean_motion": ".4256223098471835",
        "equinox": "J2000",
        "orbit_class": {
            "orbit_class_type": "APO",
            "orbit_class_description": "Near-Earth asteroid orbits which cross the Earth’s orbit similar to that of 1862 Apollo",
            "orbit_class_range": "a (semi-major axis) > 1.0 AU; q (perihelion) < 1.017 AU"
        }
    },
    "is_sentry_object": false
}